{
  "type": "FeatureCollection",
  "features": [
    {
      "type": "Feature",
      "properties": {
        "norad_id": 33835,
        "name": "COSMOS 2251 DEB",
        "group": "cosmos-2251-debris",
        "lat": -52.58145034504995,
        "lon": -53.441781685292256,
        "alt_km": 683.6779615980322,
        "timestamp": "2025-12-10T21:43:22.483833+00:00",
        "meta_object_name": "COSMOS 2251 DEB",
        "meta_object_id": "1993-036CC",
        "meta_epoch": "2025-12-10T11:07:25.377024",
        "meta_mean_motion": 14.6220946,
        "meta_eccentricity": 0.00549152,
        "meta_inclination": 74.0573,
        "meta_ra_of_asc_node": 105.4629,
        "meta_arg_of_pericenter": 159.6405,
        "meta_mean_anomaly": 271.5849,
        "meta_ephemeris_type": 0,
        "meta_classification_type": "U",
        "meta_norad_cat_id": 33835,
        "meta_element_set_no": 999,
        "meta_rev_at_epoch": 88756,
        "meta_bstar": 0.0018015136,
        "meta_mean_motion_dot": 9.255e-05,
        "meta_mean_motion_ddot": 0,
        "tle_line1": "1 33835U 93036CC  25344.46348816  .00009255  00000+0  18015-2 0  9998",
        "tle_line2": "2 33835  74.0573 105.4629 0054915 159.6405 271.5849 14.62209460887565"
      },
      "geometry": {
        "type": "Point",
        "coordinates": [
          -53.441781685292256,
          -52.58145034504995
        ]
      }
    },
    {
      "type": "Feature",
      "properties": {
        "norad_id": 33836,
        "name": "COSMOS 2251 DEB",
        "group": "cosmos-2251-debris",
        "lat": 34.03785326676707,
        "lon": 71.39305068365616,
        "alt_km": 614.2203840367483,
        "timestamp": "2025-12-10T21:43:22.483843+00:00",
        "meta_object_name": "COSMOS 2251 DEB",
        "meta_object_id": "1993-036CD",
        "meta_epoch": "2025-12-10T11:51:30.155328",
        "meta_mean_motion": 14.79546656,
        "meta_eccentricity": 0.00225456,
        "meta_inclination": 73.9971,
        "meta_ra_of_asc_node": 263.3815,
        "meta_arg_of_pericenter": 117.4126,
        "meta_mean_anomaly": 358.4103,
        "meta_ephemeris_type": 0,
        "meta_classification_type": "U",
        "meta_norad_cat_id": 33836,
        "meta_element_set_no": 999,
        "meta_rev_at_epoch": 64055,
        "meta_bstar": 0.0020301477,
        "meta_mean_motion_dot": 0.00015261,
        "meta_mean_motion_ddot": 0,
        "tle_line1": "1 33836U 93036CD  25344.49409902  .00015261  00000+0  20301-2 0  9991",
        "tle_line2": "2 33836  73.9971 263.3815 0022545 117.4126 358.4103 14.79546656640556"
      },
      "geometry": {
        "type": "Point",
        "coordinates": [
          71.39305068365616,
          34.03785326676707
        ]
      }
    },
    {
      "type": "Feature",
      "properties": {
        "norad_id": 33837,
        "name": "COSMOS 2251 DEB",
        "group": "cosmos-2251-debris",
        "lat": -43.799797944201835,
        "lon": 43.09482412668471,
        "alt_km": 708.3280098809064,
        "timestamp": "2025-12-10T21:43:22.483854+00:00",
        "meta_object_name": "COSMOS 2251 DEB",
        "meta_object_id": "1993-036CE",
        "meta_epoch": "2025-12-10T15:18:49.503744",
        "meta_mean_motion": 14.50694555,
        "meta_eccentricity": 0.00358301,
        "meta_inclination": 74.013,
        "meta_ra_of_asc_node": 59.5547,
        "meta_arg_of_pericenter": 281.6134,
        "meta_mean_anomaly": 78.1006,
        "meta_ephemeris_type": 0,
        "meta_classification_type": "U",
        "meta_norad_cat_id": 33837,
        "meta_element_set_no": 999,
        "meta_rev_at_epoch": 88765,
        "meta_bstar": 0.00042942081,
        "meta_mean_motion_dot": 1.673e-05,
        "meta_mean_motion_ddot": 0,
        "tle_line1": "1 33837U 93036CE  25344.63807296  .00001673  00000+0  42942-3 0  9994",
        "tle_line2": "2 33837  74.0130  59.5547 0035830 281.6134  78.1006 14.50694555887650"
      },
      "geometry": {
        "type": "Point",
        "coordinates": [
          43.09482412668471,
          -43.799797944201835
        ]
      }
    },
    {
      "type": "Feature",
      "properties": {
        "norad_id": 33838,
        "name": "COSMOS 2251 DEB",
        "group": "cosmos-2251-debris",
        "lat": -20.69218719542868,
        "lon": -20.543679094788395,
        "alt_km": 730.4428530474934,
        "timestamp": "2025-12-10T21:43:22.483864+00:00",
        "meta_object_name": "COSMOS 2251 DEB",
        "meta_object_id": "1993-036CF",
        "meta_epoch": "2025-12-10T12:45:49.101984",
        "meta_mean_motion": 14.48352487,
        "meta_eccentricity": 0.00274841,
        "meta_inclination": 74.0364,
        "meta_ra_of_asc_node": 153.9483,
        "meta_arg_of_pericenter": 276.1404,
        "meta_mean_anomaly": 139.9769,
        "meta_ephemeris_type": 0,
        "meta_classification_type": "U",
        "meta_norad_cat_id": 33838,
        "meta_element_set_no": 999,
        "meta_rev_at_epoch": 88537,
        "meta_bstar": 0.00063522146,
        "meta_mean_motion_dot": 2.361e-05,
        "meta_mean_motion_ddot": 0,
        "tle_line1": "1 33838U 93036CF  25344.53181831  .00002361  00000+0  63522-3 0  9996",
        "tle_line2": "2 33838  74.0364 153.9483 0027484 276.1404 139.9769 14.48352487885374"
      },
      "geometry": {
        "type": "Point",
        "coordinates": [
          -20.543679094788395,
          -20.69218719542868
        ]
      }
    },
    {
      "type": "Feature",
      "properties": {
        "norad_id": 33839,
        "name": "COSMOS 2251 DEB",
        "group": "cosmos-2251-debris",
        "lat": 22.085013257625377,
        "lon": -143.32600182978106,
        "alt_km": 648.5206585639571,
        "timestamp": "2025-12-10T21:43:22.483874+00:00",
        "meta_object_name": "COSMOS 2251 DEB",
        "meta_object_id": "1993-036CG",
        "meta_epoch": "2025-12-10T15:12:05.086080",
        "meta_mean_motion": 14.64411629,
        "meta_eccentricity": 0.00850524,
        "meta_inclination": 74.0389,
        "meta_ra_of_asc_node": 210.5273,
        "meta_arg_of_pericenter": 323.092,
        "meta_mean_anomaly": 67.2534,
        "meta_ephemeris_type": 0,
        "meta_classification_type": "U",
        "meta_norad_cat_id": 33839,
        "meta_element_set_no": 999,
        "meta_rev_at_epoch": 89549,
        "meta_bstar": 0.00036780832,
        "meta_mean_motion_dot": 2.017e-05,
        "meta_mean_motion_ddot": 0,
        "tle_line1": "1 33839U 93036CG  25344.63339220  .00002017  00000+0  36781-3 0  9990",
        "tle_line2": "2 33839  74.0389 210.5273 0085052 323.0920  67.2534 14.64411629895498"
      },
      "geometry": {
        "type": "Point",
        "coordinates": [
          -143.32600182978106,
          22.085013257625377
        ]
      }
    },
    {
      "type": "Feature",
      "properties": {
        "norad_id": 33841,
        "name": "COSMOS 2251 DEB",
        "group": "cosmos-2251-debris",
        "lat": -66.19738488683232,
        "lon": -119.0360783707948,
        "alt_km": 768.4863584946715,
        "timestamp": "2025-12-10T21:43:22.483884+00:00",
        "meta_object_name": "COSMOS 2251 DEB",
        "meta_object_id": "1993-036CJ",
        "meta_epoch": "2025-12-10T07:46:17.469120",
        "meta_mean_motion": 14.37855141,
        "meta_eccentricity": 0.0020427,
        "meta_inclination": 74.0377,
        "meta_ra_of_asc_node": 282.4898,
        "meta_arg_of_pericenter": 3.3922,
        "meta_mean_anomaly": 156.9543,
        "meta_ephemeris_type": 0,
        "meta_classification_type": "U",
        "meta_norad_cat_id": 33841,
        "meta_element_set_no": 999,
        "meta_rev_at_epoch": 88079,
        "meta_bstar": 0.00041232,
        "meta_mean_motion_dot": 1.22e-05,
        "meta_mean_motion_ddot": 0,
        "tle_line1": "1 33841U 93036CJ  25344.32381330  .00001220  00000+0  41232-3 0  9990",
        "tle_line2": "2 33841  74.0377 282.4898 0020427   3.3922 156.9543 14.37855141880798"
      },
      "geometry": {
        "type": "Point",
        "coordinates": [
          -119.0360783707948,
          -66.19738488683232
        ]
      }
    },
    {
      "type": "Feature",
      "properties": {
        "norad_id": 33842,
        "name": "COSMOS 2251 DEB",
        "group": "cosmos-2251-debris",
        "lat": 27.728800798449175,
        "lon": 34.40158178476856,
        "alt_km": 781.7584847913467,
        "timestamp": "2025-12-10T21:43:22.483894+00:00",
        "meta_object_name": "COSMOS 2251 DEB",
        "meta_object_id": "1993-036CK",
        "meta_epoch": "2025-12-10T09:22:29.199936",
        "meta_mean_motion": 14.42690234,
        "meta_eccentricity": 0.00472305,
        "meta_inclination": 74.0331,
        "meta_ra_of_asc_node": 224.012,
        "meta_arg_of_pericenter": 331.8075,
        "meta_mean_anomaly": 28.0525,
        "meta_ephemeris_type": 0,
        "meta_classification_type": "U",
        "meta_norad_cat_id": 33842,
        "meta_element_set_no": 999,
        "meta_rev_at_epoch": 88303,
        "meta_bstar": 0.0004689028,
        "meta_mean_motion_dot": 1.554e-05,
        "meta_mean_motion_ddot": 0,
        "tle_line1": "1 33842U 93036CK  25344.39061574  .00001554  00000+0  46890-3 0  9998",
        "tle_line2": "2 33842  74.0331 224.0120 0047230 331.8075  28.0525 14.42690234883033"
      },
      "geometry": {
        "type": "Point",
        "coordinates": [
          34.40158178476856,
          27.728800798449175
        ]
      }
    }
  ]
}